NORAD_CAT_ID,OBJECT_NAME,OBJECT_TYPE,EPOCH,MEAN_MOTION,ECCENTRICITY,INCLINATION,RA_OF_ASC_NODE,ARG_OF_PERICENTER,MEAN_ANOMALY,BSTAR,MEAN_MOTION_DOT,MEAN_MOTION_DDOT,TLE_LINE0,TLE_LINE1,TLE_LINE2,SEMIMAJOR_AXIS,PERIOD,APOGEE,PERIGEE,DECAYED
54174.0,STARLINK-5248,PAYLOAD,2022-11-03 14:00:01,15.9403699,0.0043386,53.2175,111.7487,192.4698,53.5567,-0.0015476,-0.00646606,0.00014298,0 STARLINK-5248,1 54174U 22141T   22307.58334491 -.00646606  14298-3 -15476-2 0  9994,2 54174  53.2175 111.7487 0043386 192.4698  53.5567 15.94036990  1051,6669.136,90.337,319.936,262.066,0.0
54174.0,STARLINK-5248,PAYLOAD,2022-11-03 22:00:00,15.93146674,0.0040255,53.2177,110.0511,196.1154,163.8536,-0.00023914,-0.00097052,1.4125999999999991e-05,0 STARLINK-5248,1 54174U 22141T   22307.91667824 -.00097052  14126-4 -23914-3 0  9993,2 54174  53.2177 110.0511 0040255 196.1154 163.8536 15.93146674  1111,6671.62,90.387,320.342,266.629,0.0
54174.0,STARLINK-5248,PAYLOAD,2022-11-04 06:00:00,15.93060507,0.003829,53.2175,108.3491,196.7516,276.1113,-0.0021364,-0.00826779,0.00021941,0 STARLINK-5248,1 54174U 22141T   22308.25001157 -.00826779  21941-3 -21364-2 0  9996,2 54174  53.2175 108.3491 0038290 196.7516 276.1113 15.93060507  1164,6671.861,90.392,319.273,268.18,0.0
54174.0,STARLINK-5248,PAYLOAD,2022-11-04 12:00:00,15.92654928,0.0036646,53.2175,107.0755,197.2805,269.9923,-0.0022037,-0.00829251,0.00021971,0 STARLINK-5248,1 54174U 22141T   22308.50001157 -.00829251  21971-3 -22037-2 0  9993,2 54174  53.2175 107.0755 0036646 197.2805 269.9923 15.92654928  1202,6672.994000000002,90.415,319.313,270.405,0.0
54174.0,STARLINK-5248,PAYLOAD,2022-11-04 14:00:01,15.92506515,0.0036124,53.2176,106.6519,197.397,27.9357,-0.0021572,-0.00804023,0.00020755,0 STARLINK-5248,1 54174U 22141T   22308.58334491 -.00804023  20755-3 -21572-2 0  9993,2 54174  53.2176 106.6519 0036124 197.3970  27.9357 15.92506515  1303,6673.408,90.423,319.38,271.166,0.0
54174.0,STARLINK-5248,PAYLOAD,2022-11-04 22:00:01,15.91983092,0.0031836,53.2173,104.9567,203.4358,133.7694,-0.002359,-0.00842685,0.00022466,0 STARLINK-5248,1 54174U 22141T   22308.91668981 -.00842685  22466-3 -23590-2 0  9993,2 54174  53.2173 104.9567 0031836 203.4358 133.7694 15.91983092  1261,6674.871,90.453,317.986,275.486,0.0
54174.0,STARLINK-5248,PAYLOAD,2022-11-05 04:00:00,15.91261789,0.0028165,53.2177,103.6829,208.7109,122.0268,-0.0010317,-0.00353883,5.0856e-05,0 STARLINK-5248,1 54174U 22141T   22309.16667824 -.00353883  50856-4 -10317-2 0  9991,2 54174  53.2177 103.6829 0028165 208.7109 122.0268 15.91261789  1300,6676.888000000001,90.494,317.558,279.947,0.0
54174.0,STARLINK-5248,PAYLOAD,2022-11-05 12:00:00,15.91037023,0.0026047,53.2172,101.9871,211.2391,230.0073,-0.0025401,-0.00849654,0.00022593,0 STARLINK-5248,1 54174U 22141T   22309.50001157 -.00849654  22593-3 -25401-2 0  9992,2 54174  53.2172 101.9871 0026047 211.2391 230.0073 15.91037023  1353,6677.517,90.507,316.775,281.9890000000001,0.0
54174.0,STARLINK-5248,PAYLOAD,2022-11-05 14:00:01,15.90875944,0.0025435,53.2175,101.5651,211.5163,347.3713,-0.0024108,-0.00798925,0.00020196,0 STARLINK-5248,1 54174U 22141T   22309.58335648 -.00798925  20196-3 -24108-2 0  9999,2 54174  53.2175 101.5651 0025435 211.5163 347.3713 15.90875944  1307,6677.967,90.516,316.818,282.847,0.0
54174.0,STARLINK-5248,PAYLOAD,2022-11-05 20:00:01,15.90472939,0.0023695,53.2176,100.2983,213.0403,338.2324,-0.0024911,-0.00805213,0.00020403,0 STARLINK-5248,1 54174U 22141T   22309.83334491 -.00805213  20403-3 -24911-2 0  9994,2 54174  53.2176 100.2983 0023695 213.0403 338.2324 15.90472939  1407,6679.095,90.539,316.7870000000001,285.134,0.0
54174.0,STARLINK-5248,PAYLOAD,2022-11-05 22:00:01,15.90288028,0.0022864,53.2168,99.8736,215.6473,93.1224,-0.002287,-0.00731521,0.00017154,0 STARLINK-5248,1 54174U 22141T   22309.91668981 -.00731521  17154-3 -22870-2 0  9998,2 54174  53.2168  99.8736 0022864 215.6473  93.1224 15.90288028  1308,6679.613,90.55,316.75,286.206,0.0
54174.0,STARLINK-5248,PAYLOAD,2022-11-06 06:00:00,15.89813338,0.0020281,53.2172,98.1813,219.5975,198.2804,-0.0027228,-0.00844591,0.00022091,0 STARLINK-5248,1 54174U 22141T   22310.25001157 -.00844591  22091-3 -27228-2 0  9993,2 54174  53.2172  98.1813 0020281 219.5975 198.2804 15.89813338  1477,6680.943,90.577,316.357,289.258,0.0
54174.0,STARLINK-5248,PAYLOAD,2022-11-06 14:00:01,15.89226126,0.0017625999999999,53.2173,96.491,224.0744,302.378,-0.0025499,-0.00764848,0.00018388,0 STARLINK-5248,1 54174U 22141T   22310.58334491 -.00764848  18388-3 -25499-2 0  9997,2 54174  53.2173  96.4910 0017626 224.0744 302.3780 15.89226126  1521,6682.5880000000025,90.61,316.232,292.675,0.0
54174.0,STARLINK-5248,PAYLOAD,2022-11-06 22:00:00,15.88685702,0.0015325999999999,53.217,94.8042,231.58,42.7727,-0.0026383,-0.00767451,0.00018406,0 STARLINK-5248,1 54174U 22141T   22310.91667824 -.00767451  18406-3 -26383-2 0  9990,2 54174  53.2170  94.8042 0015326 231.5800  42.7727 15.88685702  1576,6684.104,90.641,316.213,295.725,0.0
54174.0,STARLINK-5248,PAYLOAD,2022-11-07 14:00:01,15.8760046,0.0010906,53.217,91.4298,248.7444,239.4606,-0.0028151,-0.00713892,0.0,0 STARLINK-5248,1 54174U 22141T   22311.58334491 -.00713892  00000-0 -28151-2 0  9998,2 54174  53.2170  91.4298 0010906 248.7444 239.4606 15.87600460  1685,6687.149,90.703,316.307,301.721,0.0
54174.0,STARLINK-5248,PAYLOAD,2022-11-07 22:00:00,15.87088289,0.0009562,53.2171,89.7482,258.3738,335.7602,-0.0030599,-0.00752051,0.0,0 STARLINK-5248,1 54174U 22141T   22311.91667824 -.00752051  00000-0 -30599-2 0  9993,2 54174  53.2171  89.7482 0009562 258.3738 335.7602 15.87088289  1304,6688.5880000000025,90.732,316.849,304.057,0.0
54174.0,STARLINK-5248,PAYLOAD,2022-11-08 06:00:00,15.86548568,0.000707,53.2174,88.0626,268.4207,71.0088,-0.0031728,-0.00756911,0.0,0 STARLINK-5248,1 54174U 22141T   22312.25001157 -.00756911  00000-0 -31728-2 0  9996,2 54174  53.2174  88.0626 0007070 268.4207  71.0088 15.86548568  1795,6690.105,90.763,316.7,307.24,0.0
54174.0,STARLINK-5248,PAYLOAD,2022-11-08 14:00:01,15.85967955,0.0007183,53.2174,86.3809,269.7941,174.2992,-0.0030418,-0.00709073,0.0,0 STARLINK-5248,1 54174U 22141T   22312.58334491 -.00709073  00000-0 -30418-2 0  9994,2 54174  53.2174  86.3809 0007183 269.7941 174.2992 15.85967955  1304,6691.738,90.796,318.409,308.796,0.0
54174.0,STARLINK-5248,PAYLOAD,2022-11-08 22:00:00,15.85457386,0.0007645,53.2167,84.7015,270.3179,277.749,-0.0033147,-0.00750451,0.0,0 STARLINK-5248,1 54174U 22141T   22312.91667824 -.00750451  00000-0 -33147-2 0  9998,2 54174  53.2167  84.7015 0007645 270.3179 277.7490 15.85457386  1899,6693.174,90.826,320.156,309.922,0.0
54174.0,STARLINK-5248,PAYLOAD,2022-11-09 14:00:01,15.84315367,0.0006505,53.2173,81.3438,270.7799,123.3417,-0.0031006,-0.00669584,0.0,0 STARLINK-5248,1 54174U 22141T   22313.58334491 -.00669584  00000-0 -31006-2 0  9991,2 54174  53.2173  81.3438 0006505 270.7799 123.3417 15.84315367  1306,6696.39,90.891,322.611,313.899,0.0
54174.0,STARLINK-5248,PAYLOAD,2022-11-09 22:00:01,15.8371149,0.0007491,53.2169,79.6681,270.076,226.1779,-0.0027615,-0.00585311,0.0,0 STARLINK-5248,1 54174U 22141T   22313.91668981 -.00585311  00000-0 -27615-2 0  9998,2 54174  53.2169  79.6681 0007491 270.0760 226.1779 15.83711490  2059,6698.092,90.926,324.975,314.94,0.0
54174.0,STARLINK-5248,PAYLOAD,2022-11-10 06:00:00,15.83290643,0.000279,53.2173,77.9925,285.6034,311.9075,-0.0036937,-0.00750671,0.0,0 STARLINK-5248,1 54174U 22141T   22314.25001157 -.00750671  00000-0 -36937-2 0  9992,2 54174  53.2173  77.9925 0002790 285.6034 311.9075 15.83290643  2109,6699.279,90.95,323.013,319.275,0.0
54174.0,STARLINK-5248,PAYLOAD,2022-11-10 14:00:01,15.82641482,0.000282,53.2174,76.3189,263.6257,74.6688,-0.0029962,-0.00600727,0.0,0 STARLINK-5248,1 54174U 22141T   22314.58334491 -.00600727  00000-0 -29962-2 0  9994,2 54174  53.2174  76.3189 0002820 263.6257  74.6688 15.82641482  1306,6701.111,90.987,324.866,321.086,0.0
54174.0,STARLINK-5248,PAYLOAD,2022-11-10 20:00:01,15.8228892,0.0001569,53.2167,75.0659,315.3908,7.9967,-0.0034596,-0.0067595,0.0,0 STARLINK-5248,1 54174U 22141T   22314.83334491 -.00675950  00000-0 -34596-2 0  9991,2 54174  53.2167  75.0659 0001569 315.3908   7.9967 15.82288920  2206,6702.106,91.007,325.023,322.92,0.0
54174.0,STARLINK-5248,PAYLOAD,2022-11-10 22:00:00,15.82222694,0.0001425,53.2167,74.6473,332.9108,105.404,-0.0040388,-0.007774,0.0,0 STARLINK-5248,1 54174U 22141T   22314.91667824 -.00777400  00000-0 -40388-2 0  9998,2 54174  53.2167  74.6473 0001425 332.9108 105.4040 15.82222694  1305,6702.293000000002,91.011,325.113,323.203,0.0
54174.0,STARLINK-5248,PAYLOAD,2022-11-11 06:00:00,15.81672085,0.0001471,53.2172,72.9755,26.66,151.0871,-0.004076,-0.00765587,0.0,0 STARLINK-5248,1 54174U 22141T   22315.25001157 -.00765587  00000-0 -40760-2 0  9994,2 54174  53.2172  72.9755 0001471  26.6600 151.0871 15.81672085  2267,6703.849,91.043,326.7,324.728,0.0
54174.0,STARLINK-5248,PAYLOAD,2022-11-11 14:00:01,15.81120911,0.0001133,53.2174,71.3065,63.8244,212.7023,-0.0041068,-0.00752786,0.0,0 STARLINK-5248,1 54174U 22141T   22315.58334491 -.00752786  00000-0 -41068-2 0  9999,2 54174  53.2174  71.3065 0001133  63.8244 212.7023 15.81120911  1302,6705.406999999997,91.075,328.031,326.512,0.0
54174.0,STARLINK-5248,PAYLOAD,2022-11-11 22:00:00,15.80584098,0.0001351,53.2169,69.6383,40.2254,334.4224,-0.0042532,-0.00759848,0.0,0 STARLINK-5248,1 54174U 22141T   22315.91667824 -.00759848  00000-0 -42532-2 0  9998,2 54174  53.2169  69.6383 0001351  40.2254 334.4224 15.80584098  1305,6706.925,91.106,329.696,327.884,0.0
54174.0,STARLINK-5248,PAYLOAD,2022-11-12 06:00:00,15.80041653,0.0001589,53.2174,67.97,37.9125,74.2084,-0.0043674,-0.00760906,0.0,0 STARLINK-5248,1 54174U 22141T   22316.25001157 -.00760906  00000-0 -43674-2 0  9992,2 54174  53.2174  67.9700 0001589  37.9125  74.2084 15.80041653  2420,6708.46,91.137,331.391,329.259,0.0
